CCSDS_OMM_VERS = 2.0
CREATION_DATE  = 
ORIGINATOR     = 

OBJECT_NAME    = STARLINK-35562
OBJECT_ID      = 2025-235F
CENTER_NAME    = EARTH
REF_FRAME      = TEME
TIME_SYSTEM    = UTC
MEAN_ELEMENT_THEORY = SGP/SGP4

EPOCH          = 2025-11-04T14:00:03.000384
MEAN_MOTION    = 15.69838320
ECCENTRICITY   = .0001096
INCLINATION    = 53.1596
RA_OF_ASC_NODE = 109.9032
ARG_OF_PERICENTER = 80.5941
MEAN_ANOMALY   = 58.8103

EPHEMERIS_TYPE = 0
CLASSIFICATION_TYPE = U
NORAD_CAT_ID   = 66063
ELEMENT_SET_NO = 999
REV_AT_EPOCH   = 374
BSTAR          = -.17780911E-1
MEAN_MOTION_DOT = -.1920252E-1
MEAN_MOTION_DDOT = 0

CCSDS_OMM_VERS = 2.0
CREATION_DATE  = 
ORIGINATOR     = 

OBJECT_NAME    = STARLINK-35542
OBJECT_ID      = 2025-235G
CENTER_NAME    = EARTH
REF_FRAME      = TEME
TIME_SYSTEM    = UTC
MEAN_ELEMENT_THEORY = SGP/SGP4

EPOCH          = 2025-11-04T14:00:03.000384
MEAN_MOTION    = 15.69841406
ECCENTRICITY   = .00011671
INCLINATION    = 53.1592
RA_OF_ASC_NODE = 109.8978
ARG_OF_PERICENTER = 75.3393
MEAN_ANOMALY   = 65.9804

EPHEMERIS_TYPE = 0
CLASSIFICATION_TYPE = U
NORAD_CAT_ID   = 66064
ELEMENT_SET_NO = 999
REV_AT_EPOCH   = 374
BSTAR          = -.17813558E-1
MEAN_MOTION_DOT = -.1923648E-1
MEAN_MOTION_DDOT = 0

CCSDS_OMM_VERS = 2.0
CREATION_DATE  = 
ORIGINATOR     = 

OBJECT_NAME    = STARLINK-35375
OBJECT_ID      = 2025-235H
CENTER_NAME    = EARTH
REF_FRAME      = TEME
TIME_SYSTEM    = UTC
MEAN_ELEMENT_THEORY = SGP/SGP4

EPOCH          = 2025-11-04T14:00:03.000384
MEAN_MOTION    = 15.69839272
ECCENTRICITY   = .00010769
INCLINATION    = 53.1589
RA_OF_ASC_NODE = 109.8947
ARG_OF_PERICENTER = 83.1982
MEAN_ANOMALY   = 60.0408

EPHEMERIS_TYPE = 0
CLASSIFICATION_TYPE = U
NORAD_CAT_ID   = 66065
ELEMENT_SET_NO = 999
REV_AT_EPOCH   = 374
BSTAR          = -.17806146E-1
MEAN_MOTION_DOT = -.1922722E-1
MEAN_MOTION_DDOT = 0

CCSDS_OMM_VERS = 2.0
CREATION_DATE  = 
ORIGINATOR     = 

OBJECT_NAME    = STARLINK-35179
OBJECT_ID      = 2025-235J
CENTER_NAME    = EARTH
REF_FRAME      = TEME
TIME_SYSTEM    = UTC
MEAN_ELEMENT_THEORY = SGP/SGP4

EPOCH          = 2025-11-04T14:00:03.000384
MEAN_MOTION    = 15.69836538
ECCENTRICITY   = .00011227
INCLINATION    = 53.1588
RA_OF_ASC_NODE = 109.8918
ARG_OF_PERICENTER = 73.0323
MEAN_ANOMALY   = 72.1234

EPHEMERIS_TYPE = 0
CLASSIFICATION_TYPE = U
NORAD_CAT_ID   = 66066
ELEMENT_SET_NO = 999
REV_AT_EPOCH   = 374
BSTAR          = -.17756794E-1
MEAN_MOTION_DOT = -.1917838E-1
MEAN_MOTION_DDOT = 0

CCSDS_OMM_VERS = 2.0
CREATION_DATE  = 
ORIGINATOR     = 

OBJECT_NAME    = STARLINK-35401
OBJECT_ID      = 2025-235K
CENTER_NAME    = EARTH
REF_FRAME      = TEME
TIME_SYSTEM    = UTC
MEAN_ELEMENT_THEORY = SGP/SGP4

EPOCH          = 2025-11-04T14:00:03.000384
MEAN_MOTION    = 15.69839744
ECCENTRICITY   = .00011352
INCLINATION    = 53.1591
RA_OF_ASC_NODE = 109.8869
ARG_OF_PERICENTER = 76.9299
MEAN_ANOMALY   = 70.1414

EPHEMERIS_TYPE = 0
CLASSIFICATION_TYPE = U
NORAD_CAT_ID   = 66067
ELEMENT_SET_NO = 999
REV_AT_EPOCH   = 369
BSTAR          = -.17796992E-1
MEAN_MOTION_DOT = -.1921922E-1
MEAN_MOTION_DDOT = 0

CCSDS_OMM_VERS = 2.0
CREATION_DATE  = 
ORIGINATOR     = 

OBJECT_NAME    = STARLINK-35422
OBJECT_ID      = 2025-235L
CENTER_NAME    = EARTH
REF_FRAME      = TEME
TIME_SYSTEM    = UTC
MEAN_ELEMENT_THEORY = SGP/SGP4

EPOCH          = 2025-11-04T14:00:03.000384
MEAN_MOTION    = 15.69839362
ECCENTRICITY   = .00011523
INCLINATION    = 53.1589
RA_OF_ASC_NODE = 109.8834
ARG_OF_PERICENTER = 75.4126
MEAN_ANOMALY   = 73.5753

EPHEMERIS_TYPE = 0
CLASSIFICATION_TYPE = U
NORAD_CAT_ID   = 66068
ELEMENT_SET_NO = 999
REV_AT_EPOCH   = 369
BSTAR          = -.17791807E-1
MEAN_MOTION_DOT = -.1921411E-1
MEAN_MOTION_DDOT = 0

CCSDS_OMM_VERS = 2.0
CREATION_DATE  = 
ORIGINATOR     = 

OBJECT_NAME    = STARLINK-35279
OBJECT_ID      = 2025-235M
CENTER_NAME    = EARTH
REF_FRAME      = TEME
TIME_SYSTEM    = UTC
MEAN_ELEMENT_THEORY = SGP/SGP4

EPOCH          = 2025-11-04T14:00:03.000384
MEAN_MOTION    = 15.69839662
ECCENTRICITY   = .00011233
INCLINATION    = 53.1587
RA_OF_ASC_NODE = 109.8793
ARG_OF_PERICENTER = 70.5068
MEAN_ANOMALY   = 80.3971

EPHEMERIS_TYPE = 0
CLASSIFICATION_TYPE = U
NORAD_CAT_ID   = 66069
ELEMENT_SET_NO = 999
REV_AT_EPOCH   = 374
BSTAR          = -.17794626E-1
MEAN_MOTION_DOT = -.1921682E-1
MEAN_MOTION_DDOT = 0

CCSDS_OMM_VERS = 2.0
CREATION_DATE  = 
ORIGINATOR     = 

OBJECT_NAME    = STARLINK-35295
OBJECT_ID      = 2025-235N
CENTER_NAME    = EARTH
REF_FRAME      = TEME
TIME_SYSTEM    = UTC
MEAN_ELEMENT_THEORY = SGP/SGP4

EPOCH          = 2025-11-04T14:00:03.000384
MEAN_MOTION    = 15.69802513
ECCENTRICITY   = .00008856
INCLINATION    = 53.1590
RA_OF_ASC_NODE = 109.8718
ARG_OF_PERICENTER = 84.4996
MEAN_ANOMALY   = 70.2689

EPHEMERIS_TYPE = 0
CLASSIFICATION_TYPE = U
NORAD_CAT_ID   = 66070
ELEMENT_SET_NO = 999
REV_AT_EPOCH   = 374
BSTAR          = -.17446665E-1
MEAN_MOTION_DOT = -.1885537E-1
MEAN_MOTION_DDOT = 0

CCSDS_OMM_VERS = 2.0
CREATION_DATE  = 
ORIGINATOR     = 

OBJECT_NAME    = STARLINK-35323
OBJECT_ID      = 2025-235P
CENTER_NAME    = EARTH
REF_FRAME      = TEME
TIME_SYSTEM    = UTC
MEAN_ELEMENT_THEORY = SGP/SGP4

EPOCH          = 2025-11-04T14:00:03.000384
MEAN_MOTION    = 15.69844513
ECCENTRICITY   = .00011591
INCLINATION    = 53.1591
RA_OF_ASC_NODE = 109.8748
ARG_OF_PERICENTER = 80.5720
MEAN_ANOMALY   = 72.2475

EPHEMERIS_TYPE = 0
CLASSIFICATION_TYPE = U
NORAD_CAT_ID   = 66071
ELEMENT_SET_NO = 999
REV_AT_EPOCH   = 374
BSTAR          = -.17853906E-1
MEAN_MOTION_DOT = -.1927723E-1
MEAN_MOTION_DDOT = 0

CCSDS_OMM_VERS = 2.0
CREATION_DATE  = 
ORIGINATOR     = 

OBJECT_NAME    = STARLINK-35299
OBJECT_ID      = 2025-235Q
CENTER_NAME    = EARTH
REF_FRAME      = TEME
TIME_SYSTEM    = UTC
MEAN_ELEMENT_THEORY = SGP/SGP4

EPOCH          = 2025-11-04T14:00:03.000384
MEAN_MOTION    = 15.69839371
ECCENTRICITY   = .00012507
INCLINATION    = 53.1587
RA_OF_ASC_NODE = 109.8672
ARG_OF_PERICENTER = 79.4559
MEAN_ANOMALY   = 77.1994

EPHEMERIS_TYPE = 0
CLASSIFICATION_TYPE = U
NORAD_CAT_ID   = 66072
ELEMENT_SET_NO = 999
REV_AT_EPOCH   = 374
BSTAR          = -.17782327E-1
MEAN_MOTION_DOT = -.1920577E-1
MEAN_MOTION_DDOT = 0

CCSDS_OMM_VERS = 2.0
CREATION_DATE  = 
ORIGINATOR     = 

OBJECT_NAME    = STARLINK-35274
OBJECT_ID      = 2025-235R
CENTER_NAME    = EARTH
REF_FRAME      = TEME
TIME_SYSTEM    = UTC
MEAN_ELEMENT_THEORY = SGP/SGP4

EPOCH          = 2025-11-04T14:00:03.000384
MEAN_MOTION    = 15.69841426
ECCENTRICITY   = .00011041
INCLINATION    = 53.1591
RA_OF_ASC_NODE = 109.8627
ARG_OF_PERICENTER = 87.0623
MEAN_ANOMALY   = 71.5103

EPHEMERIS_TYPE = 0
CLASSIFICATION_TYPE = U
NORAD_CAT_ID   = 66073
ELEMENT_SET_NO = 999
REV_AT_EPOCH   = 374
BSTAR          = -.17830273E-1
MEAN_MOTION_DOT = -.1925202E-1
MEAN_MOTION_DDOT = 0

CCSDS_OMM_VERS = 2.0
CREATION_DATE  = 
ORIGINATOR     = 

OBJECT_NAME    = STARLINK-35321
OBJECT_ID      = 2025-235S
CENTER_NAME    = EARTH
REF_FRAME      = TEME
TIME_SYSTEM    = UTC
MEAN_ELEMENT_THEORY = SGP/SGP4

EPOCH          = 2025-11-04T14:00:03.000384
MEAN_MOTION    = 15.69845094
ECCENTRICITY   = .00012746
INCLINATION    = 53.1589
RA_OF_ASC_NODE = 109.8579
ARG_OF_PERICENTER = 82.2175
MEAN_ANOMALY   = 78.2692

EPHEMERIS_TYPE = 0
CLASSIFICATION_TYPE = U
NORAD_CAT_ID   = 66074
ELEMENT_SET_NO = 999
REV_AT_EPOCH   = 374
BSTAR          = -.17855791E-1
MEAN_MOTION_DOT = -.1928031E-1
MEAN_MOTION_DDOT = 0

