STARLINK-35562          
1 66063U 25235F   25308.58336806 -.01920252  00000+0 -17781-1 0  9992
2 66063  53.1596 109.9032 0001096  80.5941  58.8103 15.69838320  3743
STARLINK-35542          
1 66064U 25235G   25308.58336806 -.01923648  00000+0 -17814-1 0  9992
2 66064  53.1592 109.8978 0001167  75.3393  65.9804 15.69841406  3746
STARLINK-35375          
1 66065U 25235H   25308.58336806 -.01922722  00000+0 -17806-1 0  9996
2 66065  53.1589 109.8947 0001076  83.1982  60.0408 15.69839272  3743
STARLINK-35179          
1 66066U 25235J   25308.58336806 -.01917838  00000+0 -17757-1 0  9994
2 66066  53.1588 109.8918 0001122  73.0323  72.1234 15.69836538  3743
STARLINK-35401          
1 66067U 25235K   25308.58336806 -.01921922  00000+0 -17797-1 0  9998
2 66067  53.1591 109.8869 0001135  76.9299  70.1414 15.69839744  3695
STARLINK-35422          
1 66068U 25235L   25308.58336806 -.01921411  00000+0 -17792-1 0  9997
2 66068  53.1589 109.8834 0001152  75.4126  73.5753 15.69839362  3696
STARLINK-35279          
1 66069U 25235M   25308.58336806 -.01921682  00000+0 -17795-1 0  9991
2 66069  53.1587 109.8793 0001123  70.5068  80.3971 15.69839662  3745
STARLINK-35295          
1 66070U 25235N   25308.58336806 -.01885537  00000+0 -17447-1 0  9995
2 66070  53.1590 109.8718 0000885  84.4996  70.2689 15.69802513  3745
STARLINK-35323          
1 66071U 25235P   25308.58336806 -.01927723  00000+0 -17854-1 0  9992
2 66071  53.1591 109.8748 0001159  80.5720  72.2475 15.69844513  3748
STARLINK-35299          
1 66072U 25235Q   25308.58336806 -.01920577  00000+0 -17782-1 0  9993
2 66072  53.1587 109.8672 0001250  79.4559  77.1994 15.69839371  3745
STARLINK-35274          
1 66073U 25235R   25308.58336806 -.01925202  00000+0 -17830-1 0  9998
2 66073  53.1591 109.8627 0001104  87.0623  71.5103 15.69841426  3740
STARLINK-35321          
1 66074U 25235S   25308.58336806 -.01928031  00000+0 -17856-1 0  9990
2 66074  53.1589 109.8579 0001274  82.2175  78.2692 15.69845094  3743
